USA 119                 
1 23893U 96029A   26068.41677233  .00001640  00000+0  29026-3 0  9998
2 23893  63.3196  93.1190 0846389  47.6314 319.3281 13.45886981 91843
STARLINK-31989          
1 59959U 24107Q   26068.39894669 -.00001030  00000+0 -22658-4 0  9999
2 59959  53.1600  66.7609 0001158  87.5405 272.5728 15.30202679 99750
